{
  "type": "FeatureCollection",
  "name": "Jönköpings län municipalities - Geographic boundaries",
  "crs": { "type": "name", "properties": { "name": "EPSG:4326" } },
  "features": [
    {
      "type": "Feature",
      "properties": { "name": "Habo", "code": "0643", "area_km2": 305 },
      "geometry": {
        "type": "Polygon",
        "coordinates": [[[14.02, 57.94], [14.08, 57.96], [14.14, 57.95], [14.18, 57.92], [14.22, 57.88], [14.24, 57.84], [14.22, 57.80], [14.18, 57.77], [14.14, 57.75], [14.08, 57.76], [14.04, 57.78], [14.00, 57.82], [13.98, 57.86], [14.00, 57.90], [14.02, 57.94]]]
      }
    },
    {
      "type": "Feature",
      "properties": { "name": "Mullsjö", "code": "0642", "area_km2": 182 },
      "geometry": {
        "type": "Polygon",
        "coordinates": [[[14.14, 57.75], [14.18, 57.77], [14.24, 57.76], [14.30, 57.74], [14.34, 57.70], [14.32, 57.66], [14.28, 57.63], [14.22, 57.62], [14.16, 57.64], [14.12, 57.68], [14.10, 57.72], [14.14, 57.75]]]
      }
    },
    {
      "type": "Feature",
      "properties": { "name": "Jönköping", "code": "0680", "area_km2": 1466 },
      "geometry": {
        "type": "Polygon",
        "coordinates": [[[14.04, 57.78], [14.08, 57.76], [14.14, 57.75], [14.12, 57.68], [14.16, 57.64], [14.22, 57.62], [14.28, 57.63], [14.34, 57.64], [14.42, 57.66], [14.52, 57.68], [14.62, 57.66], [14.72, 57.62], [14.78, 57.56], [14.82, 57.50], [14.80, 57.44], [14.74, 57.38], [14.66, 57.34], [14.56, 57.32], [14.46, 57.32], [14.36, 57.34], [14.26, 57.38], [14.18, 57.42], [14.10, 57.48], [14.04, 57.54], [14.00, 57.60], [13.98, 57.66], [13.96, 57.72], [14.00, 57.76], [14.04, 57.78]]]
      }
    },
    {
      "type": "Feature",
      "properties": { "name": "Aneby", "code": "0604", "area_km2": 436 },
      "geometry": {
        "type": "Polygon",
        "coordinates": [[[14.78, 57.56], [14.84, 57.60], [14.92, 57.62], [15.02, 57.60], [15.10, 57.56], [15.14, 57.50], [15.12, 57.44], [15.06, 57.38], [14.98, 57.36], [14.90, 57.38], [14.82, 57.42], [14.78, 57.48], [14.78, 57.56]]]
      }
    },
    {
      "type": "Feature",
      "properties": { "name": "Tranås", "code": "0687", "area_km2": 401 },
      "geometry": {
        "type": "Polygon",
        "coordinates": [[[15.10, 57.56], [15.18, 57.60], [15.28, 57.62], [15.40, 57.60], [15.50, 57.56], [15.54, 57.50], [15.52, 57.44], [15.46, 57.38], [15.36, 57.36], [15.26, 57.38], [15.18, 57.42], [15.12, 57.48], [15.10, 57.56]]]
      }
    },
    {
      "type": "Feature",
      "properties": { "name": "Vaggeryd", "code": "0665", "area_km2": 607 },
      "geometry": {
        "type": "Polygon",
        "coordinates": [[[14.00, 57.60], [14.04, 57.54], [14.10, 57.48], [14.18, 57.42], [14.26, 57.38], [14.30, 57.32], [14.28, 57.26], [14.22, 57.20], [14.14, 57.16], [14.04, 57.14], [13.94, 57.16], [13.86, 57.22], [13.82, 57.30], [13.84, 57.38], [13.88, 57.46], [13.94, 57.54], [14.00, 57.60]]]
      }
    },
    {
      "type": "Feature",
      "properties": { "name": "Gnosjö", "code": "0617", "area_km2": 426 },
      "geometry": {
        "type": "Polygon",
        "coordinates": [[[13.82, 57.30], [13.86, 57.22], [13.94, 57.16], [13.92, 57.10], [13.86, 57.04], [13.78, 57.00], [13.68, 56.98], [13.58, 57.02], [13.52, 57.10], [13.54, 57.18], [13.60, 57.24], [13.70, 57.28], [13.82, 57.30]]]
      }
    },
    {
      "type": "Feature",
      "properties": { "name": "Gislaved", "code": "0662", "area_km2": 1113 },
      "geometry": {
        "type": "Polygon",
        "coordinates": [[[13.52, 57.10], [13.58, 57.02], [13.68, 56.98], [13.78, 57.00], [13.86, 57.04], [13.92, 56.98], [13.90, 56.90], [13.84, 56.82], [13.76, 56.74], [13.66, 56.68], [13.54, 56.64], [13.42, 56.66], [13.32, 56.72], [13.24, 56.80], [13.20, 56.90], [13.24, 57.00], [13.32, 57.06], [13.42, 57.10], [13.52, 57.10]]]
      }
    },
    {
      "type": "Feature",
      "properties": { "name": "Värnamo", "code": "0683", "area_km2": 1142 },
      "geometry": {
        "type": "Polygon",
        "coordinates": [[[13.66, 56.68], [13.76, 56.74], [13.88, 56.76], [14.02, 56.74], [14.14, 56.70], [14.24, 56.64], [14.30, 56.56], [14.28, 56.46], [14.22, 56.38], [14.12, 56.32], [13.98, 56.30], [13.84, 56.32], [13.70, 56.38], [13.58, 56.46], [13.50, 56.56], [13.48, 56.66], [13.54, 56.64], [13.66, 56.68]]]
      }
    },
    {
      "type": "Feature",
      "properties": { "name": "Nässjö", "code": "0682", "area_km2": 612 },
      "geometry": {
        "type": "Polygon",
        "coordinates": [[[14.46, 57.32], [14.56, 57.32], [14.66, 57.34], [14.74, 57.30], [14.80, 57.24], [14.82, 57.16], [14.78, 57.08], [14.70, 57.02], [14.60, 56.98], [14.48, 56.98], [14.38, 57.02], [14.30, 57.08], [14.28, 57.18], [14.32, 57.26], [14.40, 57.30], [14.46, 57.32]]]
      }
    },
    {
      "type": "Feature",
      "properties": { "name": "Sävsjö", "code": "0684", "area_km2": 457 },
      "geometry": {
        "type": "Polygon",
        "coordinates": [[[14.28, 57.18], [14.30, 57.08], [14.38, 57.02], [14.48, 56.98], [14.52, 56.90], [14.48, 56.82], [14.40, 56.76], [14.28, 56.74], [14.16, 56.78], [14.08, 56.86], [14.06, 56.96], [14.10, 57.06], [14.18, 57.14], [14.28, 57.18]]]
      }
    },
    {
      "type": "Feature",
      "properties": { "name": "Eksjö", "code": "0686", "area_km2": 845 },
      "geometry": {
        "type": "Polygon",
        "coordinates": [[[14.90, 57.38], [14.98, 57.36], [15.06, 57.38], [15.18, 57.42], [15.30, 57.38], [15.42, 57.32], [15.50, 57.24], [15.52, 57.14], [15.48, 57.04], [15.40, 56.96], [15.28, 56.92], [15.14, 56.94], [15.02, 56.98], [14.92, 57.04], [14.84, 57.12], [14.80, 57.22], [14.80, 57.32], [14.82, 57.42], [14.90, 57.38]]]
      }
    },
    {
      "type": "Feature",
      "properties": { "name": "Vetlanda", "code": "0685", "area_km2": 1876 },
      "geometry": {
        "type": "Polygon",
        "coordinates": [[[14.60, 56.98], [14.70, 57.02], [14.78, 57.08], [14.84, 57.12], [14.92, 57.04], [15.02, 56.98], [15.14, 56.94], [15.28, 56.92], [15.40, 56.88], [15.52, 56.80], [15.62, 56.70], [15.68, 56.58], [15.70, 56.46], [15.66, 56.34], [15.58, 56.24], [15.46, 56.16], [15.32, 56.12], [15.16, 56.14], [15.00, 56.18], [14.86, 56.26], [14.74, 56.36], [14.64, 56.48], [14.56, 56.60], [14.50, 56.72], [14.48, 56.82], [14.52, 56.90], [14.60, 56.98]]]
      }
    }
  ]
}
